NORAD_CAT_ID,OBJECT_NAME,OBJECT_TYPE,EPOCH,MEAN_MOTION,ECCENTRICITY,INCLINATION,RA_OF_ASC_NODE,ARG_OF_PERICENTER,MEAN_ANOMALY,BSTAR,MEAN_MOTION_DOT,MEAN_MOTION_DDOT,TLE_LINE0,TLE_LINE1,TLE_LINE2,SEMIMAJOR_AXIS,PERIOD,APOGEE,PERIGEE,DECAYED
55411.0,STARLINK-5605,PAYLOAD,2024-07-27 03:36:44,14.98343647,0.0002865,70.0004,113.6081,271.8431,88.24,3.8406e-05,3.65e-06,0.0,0 STARLINK-5605,1 55411U 23014W   24209.15051429  .00000365  00000-0  38406-4 0  9999,2 55411  70.0004 113.6081 0002865 271.8431  88.2400 14.98343647 83592,6950.151,96.106,574.007,570.024,0.0
55411.0,STARLINK-5605,PAYLOAD,2024-07-27 11:37:25,14.98334782,0.000275,70.0007,112.7664,273.1095,86.975,-7.5599e-05,-9.95e-06,0.0,0 STARLINK-5605,1 55411U 23014W   24209.48432120 -.00000995  00000-0 -75599-4 0  9991,2 55411  70.0007 112.7664 0002750 273.1095  86.9750 14.98334782 82701,6950.178,96.107,573.954,570.132,0.0
55411.0,STARLINK-5605,PAYLOAD,2024-07-27 21:14:14,14.98320895,0.0002621,70.0008,111.7572,274.5636,85.5223,-4.7921e-05,-6.65e-06,0.0,0 STARLINK-5605,1 55411U 23014W   24209.88489140 -.00000665  00000-0 -47921-4 0  9991,2 55411  70.0008 111.7572 0002621 274.5636  85.5223 14.98320895 83703,6950.221,96.108,573.908,570.264,0.0
55411.0,STARLINK-5605,PAYLOAD,2024-07-28 03:38:47,14.98311423,0.0002132,70.0024,111.0843,280.1174,79.9745,8.4032e-05,9.09e-06,0.0,0 STARLINK-5605,1 55411U 23014W   24210.15193651  .00000909  00000-0  84032-4 0  9995,2 55411  70.0024 111.0843 0002132 280.1174  79.9745 14.98311423 82805,6950.25,96.108,573.597,570.634,0.0
55411.0,STARLINK-5605,PAYLOAD,2024-07-28 21:16:15,14.98320259,0.0002884,70.0003,109.2322,268.9695,91.1134,7.1536e-05,7.6e-06,0.0,0 STARLINK-5605,1 55411U 23014W   24210.88629101  .00000760  00000-0  71536-4 0  9999,2 55411  70.0003 109.2322 0002884 268.9695  91.1134 14.98320259 82916,6950.223,96.108,574.092,570.084,0.0
55411.0,STARLINK-5605,PAYLOAD,2024-07-28 22:52:23,14.98334961,0.0002713,70.0001,109.0643,269.7114,90.3735,-0.00018402,-2.288e-05,0.0,0 STARLINK-5605,1 55411U 23014W   24210.95304765 -.00002288  00000-0 -18402-3 0  9994,2 55411  70.0001 109.0643 0002713 269.7114  90.3735 14.98334961 83862,6950.178,96.107,573.928,570.157,0.0
55411.0,STARLINK-5605,PAYLOAD,2024-07-29 03:40:46,14.98370927,0.0002952,70.0002,108.5594,262.3145,97.7679,-0.00070284,-8.478e-05,0.0,0 STARLINK-5605,1 55411U 23014W   24211.15331490 -.00008478  00000-0 -70284-3 0  9995,2 55411  70.0002 108.5594 0002952 262.3145  97.7679 14.98370927 82959,6950.066,96.104,573.983,569.88,0.0
55411.0,STARLINK-5605,PAYLOAD,2024-07-29 10:05:19,14.98326989,0.0002955,70.0001,107.8862,265.2015,94.8807,0.00010093,1.111e-05,0.0,0 STARLINK-5605,1 55411U 23014W   24211.42036487  .00001111  00000-0  10093-3 0  9990,2 55411  70.0001 107.8862 0002955 265.2015  94.8807 14.98326989 82993,6950.202,96.107,574.121,570.013,0.0
55411.0,STARLINK-5605,PAYLOAD,2024-07-29 22:54:23,14.98332796,0.0003028,69.9998,106.5395,264.2763,95.805,0.00016104,1.829e-05,0.0,0 STARLINK-5605,1 55411U 23014W   24211.95443995  .00001829  00000-0  16104-3 0  9999,2 55411  69.9998 106.5395 0003028 264.2763  95.8050 14.98332796 84012,6950.184,96.107,574.154,569.945,0.0
55411.0,STARLINK-5605,PAYLOAD,2024-07-30 02:06:39,14.98336049,0.0002954,69.9999,106.203,264.496,95.5862,0.00017689,2.019e-05,0.0,0 STARLINK-5605,1 55411U 23014W   24212.08795746  .00002019  00000-0  17689-3 0  9999,2 55411  69.9999 106.2030 0002954 264.4960  95.5862 14.98336049 83094,6950.174,96.107,574.092,569.986,0.0
55411.0,STARLINK-5605,PAYLOAD,2024-07-30 10:07:20,14.98332116,0.0002942,69.9999,105.3613,265.0748,95.0075,0.00012544,1.404e-05,0.0,0 STARLINK-5605,1 55411U 23014W   24212.42176053  .00001404  00000-0  12544-3 0  9993,2 55411  69.9999 105.3613 0002942 265.0748  95.0075 14.98332116 84081,6950.186,96.107,574.096,570.007,0.0
55411.0,STARLINK-5605,PAYLOAD,2024-07-30 16:31:52,14.98331397,0.0002917,69.9999,104.6887,266.577,93.5056,5.5722e-05,5.72e-06,0.0,0 STARLINK-5605,1 55411U 23014W   24212.68880311  .00000572  00000-0  55722-4 0  9991,2 55411  69.9999 104.6887 0002917 266.5770  93.5056 14.98331397 83181,6950.189,96.107,574.081,570.026,0.0
55411.0,STARLINK-5605,PAYLOAD,2024-07-30 22:56:24,14.98332739,0.0002926,69.9998,104.0153,266.7919,93.2905,6.3281e-05,6.62e-06,0.0,0 STARLINK-5605,1 55411U 23014W   24212.95584167  .00000662  00000-0  63281-4 0  9990,2 55411  69.9998 104.0153 0002926 266.7919  93.2905 14.98332739 84167,6950.184,96.107,574.083,570.016,0.0
55411.0,STARLINK-5605,PAYLOAD,2024-07-31 10:09:21,14.98332803,0.0003074,69.9995,102.8376,269.0878,90.9929,2.16e-05,1.65e-06,0.0,0 STARLINK-5605,1 55411U 23014W   24213.42316096  .00000165  00000-0  21600-4 0  9994,2 55411  69.9995 102.8376 0003074 269.0878  90.9929 14.98332803 84232,6950.184,96.107,574.186,569.913,0.0
55411.0,STARLINK-5605,PAYLOAD,2024-07-31 21:22:18,14.98324777,0.0002605,70.0002,101.6572,272.7418,87.3443,-0.00012959,-1.639e-05,0.0,0 STARLINK-5605,1 55411U 23014W   24213.89049189 -.00001639  00000-0 -12959-3 0  9996,2 55411  70.0002 101.6572 0002605 272.7418  87.3443 14.98324777 83364,6950.209,96.107,573.885,570.264,0.0
55411.0,STARLINK-5605,PAYLOAD,2024-07-31 22:58:26,14.98324855,0.0002569,70.0002,101.4892,267.8031,92.2834,-0.00014012,-1.764e-05,0.0,0 STARLINK-5605,1 55411U 23014W   24213.95725220 -.00001764  00000-0 -14012-3 0  9991,2 55411  70.0002 101.4892 0002569 267.8031  92.2834 14.98324855 84314,6950.209,96.107,573.859,570.288,0.0
55411.0,STARLINK-5605,PAYLOAD,2024-08-01 10:11:22,14.98335951,0.0003193,69.999,100.3102,259.064,101.016,-6.1022e-05,-8.21e-06,0.0,0 STARLINK-5605,1 55411U 23014W   24214.42456076 -.00000821  00000-0 -61022-4 0  9991,2 55411  69.9990 100.3102 0003193 259.0640 101.0160 14.98335951 83445,6950.174,96.107,574.259,569.82,0.0
55411.0,STARLINK-5605,PAYLOAD,2024-08-01 23:00:25,14.98341798,0.0003023,69.9993,98.9643,270.7461,89.3351,0.00010621,1.175e-05,0.0,0 STARLINK-5605,1 55411U 23014W   24214.95863237  .00001175  00000-0  10621-3 0  9999,2 55411  69.9993  98.9643 0003023 270.7461  89.3351 14.98341798 84462,6950.156,96.106,574.122,569.92,0.0
55411.0,STARLINK-5605,PAYLOAD,2024-08-02 02:12:41,14.98346616,0.0003053,69.9991,98.6278,271.4381,88.6429,0.00014959,1.693e-05,0.0,0 STARLINK-5605,1 55411U 23014W   24215.09214726  .00001693  00000-0  14959-3 0  9991,2 55411  69.9991  98.6278 0003053 271.4381  88.6429 14.98346616 83543,6950.142,96.106,574.128,569.885,0.0
55411.0,STARLINK-5605,PAYLOAD,2024-08-02 10:13:22,14.98335122,0.0002597,70.0003,97.7878,278.2752,81.8113,-4.0444e-07,-9.8e-07,0.0,0 STARLINK-5605,1 55411U 23014W   24215.42595850 -.00000098  00000-0 -40444-6 0  9999,2 55411  70.0003  97.7878 0002597 278.2752  81.8113 14.98335122 83595,6950.177,96.107,573.847,570.237,0.0
55411.0,STARLINK-5605,PAYLOAD,2024-08-02 19:50:11,14.98321001,0.0002772,69.9993,96.7756,267.0871,92.997,8.9313e-05,9.73e-06,0.0,0 STARLINK-5605,1 55411U 23014W   24215.82652560  .00000973  00000-0  89313-4 0  9991,2 55411  69.9993  96.7756 0002772 267.0871  92.9970 14.98321001 83659,6950.221,96.108,574.012,570.159,0.0
55411.0,STARLINK-5605,PAYLOAD,2024-08-02 23:02:27,14.98322845,0.0002617,69.9998,96.4391,263.0392,97.0469,6.9485e-05,7.36e-06,0.0,0 STARLINK-5605,1 55411U 23014W   24215.96004568  .00000736  00000-0  69485-4 0  9990,2 55411  69.9998  96.4391 0002617 263.0392  97.0469 14.98322845 84611,6950.215,96.107,573.899,570.261,0.0
55411.0,STARLINK-5605,PAYLOAD,2024-08-03 15:03:48,14.98335993,0.0002764,69.9996,94.7563,268.4343,91.6499,-4.2774e-05,-6.03e-06,0.0,0 STARLINK-5605,1 55411U 23014W   24216.62764145 -.00000603  00000-0 -42774-4 0  9995,2 55411  69.9996  94.7563 0002764 268.4343  91.6499 14.98335993 84711,6950.174,96.107,573.96,570.118,0.0
55411.0,STARLINK-5605,PAYLOAD,2024-08-03 19:52:12,14.98337117,0.0002794,69.9996,94.2514,267.8652,92.2187,-1.8543e-05,-3.14e-06,0.0,0 STARLINK-5605,1 55411U 23014W   24216.82791933 -.00000314  00000-0 -18543-4 0  9998,2 55411  69.9996  94.2514 0002794 267.8652  92.2187 14.98337117 83801,6950.171,96.107,573.978,570.094,0.0
55411.0,STARLINK-5605,PAYLOAD,2024-08-04 15:05:49,14.98327621,0.0002683,70.0,92.2314,267.0239,93.0613,0.00010813,1.197e-05,0.0,0 STARLINK-5605,1 55411U 23014W   24217.62904024  .00001197  00000-0  10813-3 0  9993,2 55411  70.0000  92.2314 0002683 267.0239  93.0613 14.98327621 84865,6950.2,96.107,573.93,570.201,0.0
55411.0,STARLINK-5605,PAYLOAD,2024-08-04 21:30:20,14.98334,0.0002703,69.9998,91.5582,265.7637,94.3213,0.00016207,1.842e-05,0.0,0 STARLINK-5605,1 55411U 23014W   24217.89607546  .00001842  00000-0  16207-3 0  9991,2 55411  69.9998  91.5582 0002703 265.7637  94.3213 14.98334000 83966,6950.181,96.107,573.924,570.167,0.0
55411.0,STARLINK-5605,PAYLOAD,2024-08-04 23:06:28,14.98334389,0.0002648,69.9999,91.39,265.3474,94.7383,0.0001736,1.979e-05,0.0,0 STARLINK-5605,1 55411U 23014W   24217.96283503  .00001979  00000-0  17360-3 0  9994,2 55411  69.9999  91.3900 0002648 265.3474  94.7383 14.98334389 84910,6950.179,96.107,573.885,570.204,0.0
55411.0,STARLINK-5605,PAYLOAD,2024-08-05 21:32:22,14.98324544,0.0002542,70.0001,89.0345,263.3984,96.6885,-5.2689e-05,-7.21e-06,0.0,0 STARLINK-5605,1 55411U 23014W   24218.89748615 -.00000721  00000-0 -52689-4 0  9997,2 55411  70.0001  89.0345 0002542 263.3984  96.6885 14.98324544 84113,6950.21,96.107,573.842,570.308,0.0
55411.0,STARLINK-5605,PAYLOAD,2024-08-06 00:44:38,14.98325866,0.000258,70.0,88.6976,265.7,94.3864,-5.8567e-05,-7.92e-06,0.0,0 STARLINK-5605,1 55411U 23014W   24219.03100554 -.00000792  00000-0 -58567-4 0  9997,2 55411  70.0000  88.6976 0002580 265.7000  94.3864 14.98325866 85070,6950.206,96.107,573.864,570.278,0.0
55411.0,STARLINK-5605,PAYLOAD,2024-08-06 21:34:23,14.9832852,0.0002773,69.9997,86.5084,269.5521,90.532,-9.3309e-06,-2.04e-06,0.0,0 STARLINK-5605,1 55411U 23014W   24219.89888366 -.00000204  00000-0 -93309-5 0  9997,2 55411  69.9997  86.5084 0002773 269.5521  90.5320 14.98328520 85203,6950.197,96.107,573.99,570.135,0.0
